NORAD_CAT_ID,OBJECT_NAME,OBJECT_TYPE,EPOCH,MEAN_MOTION,ECCENTRICITY,INCLINATION,RA_OF_ASC_NODE,ARG_OF_PERICENTER,MEAN_ANOMALY,BSTAR,MEAN_MOTION_DOT,MEAN_MOTION_DDOT,TLE_LINE0,TLE_LINE1,TLE_LINE2,SEMIMAJOR_AXIS,PERIOD,APOGEE,PERIGEE,DECAYED
50198.0,STARLINK-3264,PAYLOAD,2023-02-13 11:48:31,15.0883961,0.0001338,53.217,227.8858,88.0709,272.0436,0.00012581,1.715e-05,0.0,0 STARLINK-3264,1 50198U 21125AU  23044.49203638  .00001715  00000-0  12581-3 0  9996,2 50198  53.2170 227.8858 0001338  88.0709 272.0436 15.08839610 67143,6917.882,95.438,540.672,538.821,0.0
50198.0,STARLINK-3264,PAYLOAD,2023-02-14 11:39:19,15.08840631,0.0001195,53.2142,223.4243,78.6532,281.4594,0.00016388,2.321e-05,0.0,0 STARLINK-3264,1 50198U 21125AU  23045.48563780  .00002321  00000-0  16388-3 0  9996,2 50198  53.2142 223.4243 0001195  78.6532 281.4594 15.08840631 67775,6917.878,95.438,540.57,538.917,0.0
50198.0,STARLINK-3264,PAYLOAD,2023-02-14 18:00:51,15.08843412,0.0001011,53.2138,222.234,83.7194,276.3914,0.00018088,2.592e-05,0.0,0 STARLINK-3264,1 50198U 21125AU  23045.75059629  .00002592  00000-0  18088-3 0  9997,2 50198  53.2138 222.2340 0001011  83.7194 276.3914 15.08843412 67334,6917.87,95.437,540.434,539.036,0.0
50198.0,STARLINK-3264,PAYLOAD,2023-02-15 11:30:06,15.08841291,0.0001158,53.2136,218.9625,89.2373,270.8751,0.00013735,1.899e-05,0.0,0 STARLINK-3264,1 50198U 21125AU  23046.47923744  .00001899  00000-0  13735-3 0  9998,2 50198  53.2136 218.9625 0001158  89.2373 270.8751 15.08841291 67928,6917.876,95.437,540.543,538.94,0.0
50198.0,STARLINK-3264,PAYLOAD,2023-02-15 17:51:38,15.08846939,0.0001248,53.2126,217.7722,92.5149,267.5986,0.00020029,2.902e-05,0.0,0 STARLINK-3264,1 50198U 21125AU  23046.74419427  .00002902  00000-0  20029-3 0  9996,2 50198  53.2126 217.7722 0001248  92.5149 267.5986 15.08846939 67961,6917.859,95.437,540.588,538.861,0.0
50198.0,STARLINK-3264,PAYLOAD,2023-02-16 11:20:52,15.08845394,0.000112,53.2124,214.5023,85.8414,274.2706,0.00012142,1.645e-05,0.0,0 STARLINK-3264,1 50198U 21125AU  23047.47283392  .00001645  00000-0  12142-3 0  9997,2 50198  53.2124 214.5023 0001120  85.8414 274.2706 15.08845394 67595,6917.864,95.437,540.504,538.954,0.0
50198.0,STARLINK-3264,PAYLOAD,2023-02-16 20:53:11,15.08847828,9.78e-05,53.2133,212.7178,87.884,272.2264,0.00014624,2.041e-05,0.0,0 STARLINK-3264,1 50198U 21125AU  23047.87027102  .00002041  00000-0  14624-3 0  9994,2 50198  53.2133 212.7178 0000978  87.8840 272.2264 15.08847828 68133,6917.856,95.437,540.398,539.045,0.0
50198.0,STARLINK-3264,PAYLOAD,2023-02-17 11:11:40,15.08834515,0.000134,53.2122,210.0415,89.6316,270.483,-1.0986e-05,-4.63e-06,0.0,0 STARLINK-3264,1 50198U 21125AU  23048.46644030 -.00000463  00000-0 -10986-4 0  9991,2 50198  53.2122 210.0415 0001340  89.6316 270.4830 15.08834515 67742,6917.897,95.438,540.689,538.835,0.0
50198.0,STARLINK-3264,PAYLOAD,2023-02-17 17:33:13,15.08833425,0.0001176,53.2143,208.8534,87.6276,272.4851,2.8619e-05,1.68e-06,0.0,0 STARLINK-3264,1 50198U 21125AU  23048.73140244  .00000168  00000-0  28619-4 0  9991,2 50198  53.2143 208.8534 0001176  87.6276 272.4851 15.08833425 68264,6917.9,95.438,540.579,538.952,0.0
50198.0,STARLINK-3264,PAYLOAD,2023-02-18 11:02:27,15.08833673,0.0001177,53.2153,205.5823,96.5973,263.5153,1.7933e-05,-2e-08,0.0,0 STARLINK-3264,1 50198U 21125AU  23049.46004527 -.00000002  00000-0  17933-4 0  9990,2 50198  53.2153 205.5823 0001177  96.5973 263.5153 15.08833673 68377,6917.9,95.438,540.579,538.95,0.0
50198.0,STARLINK-3264,PAYLOAD,2023-02-18 20:34:46,15.08840268,0.000115,53.2156,203.798,93.4725,266.6399,7.9633e-05,9.8e-06,0.0,0 STARLINK-3264,1 50198U 21125AU  23049.85748075  .00000980  00000-0  79633-4 0  9995,2 50198  53.2156 203.7980 0001150  93.4725 266.6399 15.08840268 67953,6917.88,95.438,540.54,538.949,0.0
50198.0,STARLINK-3264,PAYLOAD,2023-02-19 14:04:00,15.08839981,0.0001186,53.2157,200.5268,92.0371,268.0757,0.00018432,2.647e-05,0.0,0 STARLINK-3264,1 50198U 21125AU  23050.58612244  .00002647  00000-0  18432-3 0  9996,2 50198  53.2157 200.5268 0001186  92.0371 268.0757 15.08839981 68549,6917.88,95.438,540.566,538.925,0.0
50198.0,STARLINK-3264,PAYLOAD,2023-02-20 02:47:06,15.08839033,0.0001106,53.2161,198.1477,91.1194,268.9925,0.00018439,2.648e-05,0.0,0 STARLINK-3264,1 50198U 21125AU  23051.11604383  .00002648  00000-0  18439-3 0  9999,2 50198  53.2161 198.1477 0001106  91.1194 268.9925 15.08839033 68143,6917.883,95.438,540.513,538.983,0.0
50198.0,STARLINK-3264,PAYLOAD,2023-02-20 13:54:48,15.08836759,0.0001113,53.2151,196.066,89.4434,270.6685,-2.3105e-05,-6.55e-06,0.0,0 STARLINK-3264,1 50198U 21125AU  23051.57972437 -.00000655  00000-0 -23105-4 0  9992,2 50198  53.2151 196.0660 0001113  89.4434 270.6685 15.08836759 68693,6917.89,95.438,540.525,538.985,0.0
50198.0,STARLINK-3264,PAYLOAD,2023-02-21 12:10:12,15.08841605,0.0001377,53.2148,191.9019,92.3097,267.8052,6.3652e-05,7.25e-06,0.0,0 STARLINK-3264,1 50198U 21125AU  23052.50708475  .00000725  00000-0  63652-4 0  9992,2 50198  53.2148 191.9019 0001377  92.3097 267.8052 15.08841605 68839,6917.875,95.437,540.693,538.788,0.0
50198.0,STARLINK-3264,PAYLOAD,2023-02-21 15:20:58,15.08843502,0.0001177,53.2159,191.3075,92.0705,268.0422,6.268e-05,7.1e-06,0.0,0 STARLINK-3264,1 50198U 21125AU  23052.63956210  .00000710  00000-0  62680-4 0  9992,2 50198  53.2159 191.3075 0001177  92.0705 268.0422 15.08843502 68379,6917.87,95.437,540.549,538.92,0.0
50198.0,STARLINK-3264,PAYLOAD,2023-02-21 18:31:43,15.08856375,0.0001237,53.2157,190.7108,100.0198,260.0933,0.00015004,2.102e-05,0.0,0 STARLINK-3264,1 50198U 21125AU  23052.77203132  .00002102  00000-0  15004-3 0  9999,2 50198  53.2157 190.7108 0001237 100.0198 260.0933 15.08856375 68393,6917.83,95.437,540.551,538.84,0.0
50198.0,STARLINK-3264,PAYLOAD,2023-02-22 10:25:35,15.08839749,0.0001139,53.2158,187.7388,106.6508,253.4609,0.00011514,1.545e-05,0.0,0 STARLINK-3264,1 50198U 21125AU  23053.43444121  .00001545  00000-0  11514-3 0  9990,2 50198  53.2158 187.7388 0001139 106.6508 253.4609 15.08839749 68491,6917.881,95.438,540.534,538.958,0.0
50198.0,STARLINK-3264,PAYLOAD,2023-02-22 18:22:30,15.08851474,0.0001207,53.2164,186.2492,131.4235,228.6861,0.00010537,1.39e-05,0.0,0 STARLINK-3264,1 50198U 21125AU  23053.76563089  .00001390  00000-0  10537-3 0  9993,2 50198  53.2164 186.2492 0001207 131.4235 228.6861 15.08851474 68546,6917.845,95.437,540.545,538.875,0.0
50198.0,STARLINK-3264,PAYLOAD,2023-02-23 03:54:50,15.08837849,0.000131,53.2152,184.4672,116.1864,243.9263,3.5147e-05,2.71e-06,0.0,0 STARLINK-3264,1 50198U 21125AU  23054.16308244  .00000271  00000-0  35147-4 0  9990,2 50198  53.2152 184.4672 0001310 116.1864 243.9263 15.08837849 68609,6917.887,95.438,540.658,538.846,0.0
50198.0,STARLINK-3264,PAYLOAD,2023-02-23 11:51:46,15.08840313,0.0001223,53.2158,182.9806,106.6273,253.4853,-8.9934e-05,-1.719e-05,0.0,0 STARLINK-3264,1 50198U 21125AU  23054.49428534 -.00001719  00000-0 -89934-4 0  9994,2 50198  53.2158 182.9806 0001223 106.6273 253.4853 15.08840313 69138,6917.879,95.438,540.59,538.898,0.0
50198.0,STARLINK-3264,PAYLOAD,2023-02-23 18:13:18,15.08847952,0.0001345,53.2155,181.7898,112.3235,247.7899,-6.2551e-06,-3.88e-06,0.0,0 STARLINK-3264,1 50198U 21125AU  23054.75923741 -.00000388  00000-0 -62551-5 0  9991,2 50198  53.2155 181.7898 0001345 112.3235 247.7899 15.08847952 68692,6917.856,95.437,540.652,538.791,0.0
50198.0,STARLINK-3264,PAYLOAD,2023-02-24 08:31:47,15.08834544,0.0001461,53.2155,179.1129,123.1665,236.9467,5.836e-05,6.41e-06,0.0,0 STARLINK-3264,1 50198U 21125AU  23055.35540526  .00000641  00000-0  58360-4 0  9996,2 50198  53.2155 179.1129 0001461 123.1665 236.9467 15.08834544 68780,6917.897,95.438,540.773,538.751,0.0
50198.0,STARLINK-3264,PAYLOAD,2023-02-24 11:42:33,15.08837769,0.0001449,53.2151,178.5208,99.3179,260.7977,0.00010039,1.31e-05,0.0,0 STARLINK-3264,1 50198U 21125AU  23055.48788388  .00001310  00000-0  10039-3 0  9994,2 50198  53.2151 178.5208 0001449  99.3179 260.7977 15.08837769 69286,6917.887,95.438,540.755,538.75,0.0
50198.0,STARLINK-3264,PAYLOAD,2023-02-24 13:17:56,15.0883932,0.0001399,53.2152,178.2237,96.9249,263.1902,0.00011147,1.487e-05,0.0,0 STARLINK-3264,1 50198U 21125AU  23055.55412264  .00001487  00000-0  11147-3 0  9995,2 50198  53.2152 178.2237 0001399  96.9249 263.1902 15.08839320 69292,6917.882,95.438,540.715,538.78,0.0
50198.0,STARLINK-3264,PAYLOAD,2023-02-25 03:36:25,15.0883113,0.0001618,53.2159,175.552,67.1852,292.9311,7.4359e-05,8.95e-06,0.0,0 STARLINK-3264,1 50198U 21125AU  23056.15029282  .00000895  00000-0  74359-4 0  9993,2 50198  53.2159 175.5520 0001618  67.1852 292.9311 15.08831130 68900,6917.908,95.438,540.892,538.653,0.0
50198.0,STARLINK-3264,PAYLOAD,2023-02-25 13:08:44,15.08824231,0.0001525,53.2161,173.7673,69.9902,290.1254,4.5369e-05,4.34e-06,0.0,0 STARLINK-3264,1 50198U 21125AU  23056.54774017  .00000434  00000-0  45369-4 0  9997,2 50198  53.2161 173.7673 0001525  69.9902 290.1254 15.08824231 68961,6917.929,95.439,540.849,538.739,0.0
50198.0,STARLINK-3264,PAYLOAD,2023-02-26 00:16:25,15.08841532,0.0001507,53.2167,171.6844,95.4746,264.6418,2.3976e-05,9.4e-07,0.0,0 STARLINK-3264,1 50198U 21125AU  23057.01140965  .00000094  00000-0  23976-4 0  9991,2 50198  53.2167 171.6844 0001507  95.4746 264.6418 15.08841532 69034,6917.876,95.437,540.783,538.698,0.0
50198.0,STARLINK-3264,PAYLOAD,2023-02-26 09:48:44,15.08848001,0.0001418,53.2158,169.8986,90.1838,269.9317,0.00020354,2.954e-05,0.0,0 STARLINK-3264,1 50198U 21125AU  23057.40884269  .00002954  00000-0  20354-3 0  9999,2 50198  53.2158 169.8986 0001418  90.1838 269.9317 15.08848001 69095,6917.856,95.437,540.702,538.74,0.0
50198.0,STARLINK-3264,PAYLOAD,2023-02-26 11:24:07,15.08850719,0.0001301,53.2161,169.6022,82.0849,278.0291,0.00022511,3.298e-05,0.0,0 STARLINK-3264,1 50198U 21125AU  23057.47508124  .00003298  00000-0  22511-3 0  9998,2 50198  53.2161 169.6022 0001301  82.0849 278.0291 15.08850719 69586,6917.848,95.437,540.613,538.813,0.0
